NORAD_CAT_ID,OBJECT_NAME,OBJECT_TYPE,EPOCH,MEAN_MOTION,ECCENTRICITY,INCLINATION,RA_OF_ASC_NODE,ARG_OF_PERICENTER,MEAN_ANOMALY,BSTAR,MEAN_MOTION_DOT,MEAN_MOTION_DDOT,TLE_LINE0,TLE_LINE1,TLE_LINE2,SEMIMAJOR_AXIS,PERIOD,APOGEE,PERIGEE,DECAYED
52293.0,STARLINK-3771,PAYLOAD,2024-07-25 05:51:39,15.08843211,0.0001373,53.2146,238.7218,98.9362,261.1786,9.2281e-05,1.181e-05,0.0,0 STARLINK-3771,1 52293U 22041AJ  24207.24420313  .00001181  00000-0  92281-4 0  9991,2 52293  53.2146 238.7218 0001373  98.9362 261.1786 15.08843211125064,6917.871,95.437,540.685,538.786,0.0
52293.0,STARLINK-3771,PAYLOAD,2024-07-25 12:13:11,15.0884346,0.0001524,53.215,237.5337,97.1147,263.0018,0.000133,1.83e-05,0.0,0 STARLINK-3771,1 52293U 22041AJ  24207.50916274  .00001830  00000-0  13300-3 0  9991,2 52293  53.2150 237.5337 0001524  97.1147 263.0018 15.08843460126323,6917.87,95.437,540.789,538.681,0.0
52293.0,STARLINK-3771,PAYLOAD,2024-07-26 02:31:40,15.08837272,0.0001428,53.2143,234.8567,88.9316,271.184,0.00011448,1.534e-05,0.0,0 STARLINK-3771,1 52293U 22041AJ  24208.10532611  .00001534  00000-0  11448-3 0  9999,2 52293  53.2143 234.8567 0001428  88.9316 271.1840 15.08837272126416,6917.889,95.438,540.742,538.766,0.0
52293.0,STARLINK-3771,PAYLOAD,2024-07-26 08:53:12,15.08840125,0.0001492,53.2148,233.668,93.4032,266.7131,0.00013996,1.94e-05,0.0,0 STARLINK-3771,1 52293U 22041AJ  24208.37028508  .00001940  00000-0  13996-3 0  9994,2 52293  53.2148 233.6680 0001492  93.4032 266.7131 15.08840125125234,6917.88,95.438,540.777,538.713,0.0
52293.0,STARLINK-3771,PAYLOAD,2024-07-26 18:25:31,15.08841606,0.0001461,53.2147,231.8861,91.1992,268.9168,9.9541e-05,1.297e-05,0.0,0 STARLINK-3771,1 52293U 22041AJ  24208.76772418  .00001297  00000-0  99541-4 0  9999,2 52293  53.2147 231.8861 0001461  91.1992 268.9168 15.08841606125295,6917.875,95.437,540.751,538.73,0.0
52293.0,STARLINK-3771,PAYLOAD,2024-07-27 05:33:13,15.08838421,0.0001484,53.2147,229.8047,92.4873,267.6289,3.6708e-06,-2.3e-06,0.0,0 STARLINK-3771,1 52293U 22041AJ  24209.23140566 -.00000230  00000-0  36708-5 0  9999,2 52293  53.2147 229.8047 0001484  92.4873 267.6289 15.08838421125364,6917.885,95.438,540.777,538.724,0.0
52293.0,STARLINK-3771,PAYLOAD,2024-07-27 07:08:36,15.08838438,0.0001486,53.2148,229.5074,92.3274,267.7888,1.04e-06,-2.71e-06,0.0,0 STARLINK-3771,1 52293U 22041AJ  24209.29764560 -.00000271  00000-0  10400-5 0  9997,2 52293  53.2148 229.5074 0001486  92.3274 267.7888 15.08838438126598,6917.885,95.438,540.778,538.722,0.0
52293.0,STARLINK-3771,PAYLOAD,2024-07-28 10:10:10,15.08839739,0.0001445,53.2156,224.4522,97.7577,262.358,6.2441e-05,7.06e-06,0.0,0 STARLINK-3771,1 52293U 22041AJ  24210.42372892  .00000706  00000-0  62441-4 0  9990,2 52293  53.2156 224.4522 0001445  97.7577 262.3580 15.08839739126763,6917.881,95.438,540.746,538.747,0.0
52293.0,STARLINK-3771,PAYLOAD,2024-07-28 21:17:52,15.08836595,0.0001428,53.2155,222.3698,96.0079,264.1076,7.6414e-05,9.28e-06,0.0,0 STARLINK-3771,1 52293U 22041AJ  24210.88741155  .00000928  00000-0  76414-4 0  9993,2 52293  53.2155 222.3698 0001428  96.0079 264.1076 15.08836595125613,6917.891,95.438,540.744,538.768,0.0
52293.0,STARLINK-3771,PAYLOAD,2024-07-29 10:00:57,15.08838571,0.0001353,53.2151,219.9883,97.9569,262.1576,7.04e-05,8.33e-06,0.0,0 STARLINK-3771,1 52293U 22041AJ  24211.41733107  .00000833  00000-0  70400-4 0  9995,2 52293  53.2151 219.9883 0001353  97.9569 262.1576 15.08838571125695,6917.885,95.438,540.686,538.814,0.0
52293.0,STARLINK-3771,PAYLOAD,2024-07-30 05:05:34,15.08845357,0.000132,53.2153,216.4202,98.9164,261.1977,0.0001316,1.807e-05,0.0,0 STARLINK-3771,1 52293U 22041AJ  24212.21220541  .00001807  00000-0  13160-3 0  9998,2 52293  53.2153 216.4202 0001320  98.9164 261.1977 15.08845357127034,6917.864,95.437,540.642,538.816,0.0
52293.0,STARLINK-3771,PAYLOAD,2024-07-30 09:51:43,15.08847851,0.0001358,53.2151,215.5279,92.9526,267.1622,0.00014589,2.035e-05,0.0,0 STARLINK-3771,1 52293U 22041AJ  24212.41092369  .00002035  00000-0  14589-3 0  9995,2 52293  53.2151 215.5279 0001358  92.9526 267.1622 15.08847851125844,6917.856,95.437,540.661,538.782,0.0
52293.0,STARLINK-3771,PAYLOAD,2024-07-30 17:48:39,15.08847735,0.0001354,53.2151,214.0409,93.212,266.9027,0.00013577,1.874e-05,0.0,0 STARLINK-3771,1 52293U 22041AJ  24212.74212325  .00001874  00000-0  13577-3 0  9993,2 52293  53.2151 214.0409 0001354  93.2120 266.9027 15.08847735125895,6917.857,95.437,540.658,538.785,0.0
52293.0,STARLINK-3771,PAYLOAD,2024-07-31 04:56:21,15.08843953,0.0001397,53.2153,211.9603,91.9368,268.1784,0.00012699,1.734e-05,0.0,0 STARLINK-3771,1 52293U 22041AJ  24213.20580605  .00001734  00000-0  12699-3 0  9993,2 52293  53.2153 211.9603 0001397  91.9368 268.1784 15.08843953127181,6917.868,95.437,540.7,538.767,0.0
52293.0,STARLINK-3771,PAYLOAD,2024-07-31 06:31:44,15.08846108,0.0001409,53.2153,211.6625,94.9902,265.1251,0.00014414,2.007e-05,0.0,0 STARLINK-3771,1 52293U 22041AJ  24213.27204404  .00002007  00000-0  14414-3 0  9991,2 52293  53.2153 211.6625 0001409  94.9902 265.1251 15.08846108125979,6917.862,95.437,540.701,538.752,0.0
52293.0,STARLINK-3771,PAYLOAD,2024-07-31 22:25:36,15.08840256,0.0001513,53.2156,208.6874,100.6747,259.4415,9.7078e-06,-1.33e-06,0.0,0 STARLINK-3771,1 52293U 22041AJ  24213.93444968 -.00000133  00000-0  97078-5 0  9993,2 52293  53.2156 208.6874 0001513 100.6747 259.4415 15.08840256126070,6917.88,95.438,540.791,538.698,0.0
52293.0,STARLINK-3771,PAYLOAD,2024-08-01 04:47:09,15.08838572,0.0001515,53.2156,207.4978,100.8911,259.2251,-7.1388e-06,-4.02e-06,0.0,0 STARLINK-3771,1 52293U 22041AJ  24214.19941064 -.00000402  00000-0 -71388-5 0  9997,2 52293  53.2156 207.4978 0001515 100.8911 259.2251 15.08838572127333,6917.885,95.438,540.798,538.702,0.0
52293.0,STARLINK-3771,PAYLOAD,2024-08-01 09:33:18,15.08840407,0.0001328,53.2151,206.6078,88.7993,271.3152,-1.6975e-05,-5.58e-06,0.0,0 STARLINK-3771,1 52293U 22041AJ  24214.39812986 -.00000558  00000-0 -16975-4 0  9991,2 52293  53.2151 206.6078 0001328  88.7993 271.3152 15.08840407126149,6917.879,95.438,540.663,538.825,0.0
52293.0,STARLINK-3771,PAYLOAD,2024-08-02 06:13:18,15.08844417,0.0001293,53.2148,202.7422,85.5331,274.5809,6.6723e-05,7.74e-06,0.0,0 STARLINK-3771,1 52293U 22041AJ  24215.25924449  .00000774  00000-0  66723-4 0  9999,2 52293  53.2148 202.7422 0001293  85.5331 274.5809 15.08844417127495,6917.867,95.437,540.626,538.837,0.0
52293.0,STARLINK-3771,PAYLOAD,2024-08-02 15:45:37,15.08841255,0.0001355,53.2152,200.9582,86.3793,273.7355,-8.2271e-06,-4.19e-06,0.0,0 STARLINK-3771,1 52293U 22041AJ  24215.65668892 -.00000419  00000-0 -82271-5 0  9995,2 52293  53.2152 200.9582 0001355  86.3793 273.7355 15.08841255127558,6917.877,95.437,540.679,538.804,0.0
52293.0,STARLINK-3771,PAYLOAD,2024-08-03 06:04:06,15.0883393,0.0001452,53.2164,198.2834,93.2886,266.8273,8.0674e-05,9.96e-06,0.0,0 STARLINK-3771,1 52293U 22041AJ  24216.25285377  .00000996  00000-0  80674-4 0  9997,2 52293  53.2164 198.2834 0001452  93.2886 266.8273 15.08833930127641,6917.899,95.438,540.768,538.759,0.0
52293.0,STARLINK-3771,PAYLOAD,2024-08-03 15:36:25,15.08835673,0.0001446,53.216,196.5003,91.9574,268.1583,2.7928e-05,1.57e-06,0.0,0 STARLINK-3771,1 52293U 22041AJ  24216.65029551  .00000157  00000-0  27928-4 0  9993,2 52293  53.2160 196.5003 0001446  91.9574 268.1583 15.08835673126484,6917.894,95.438,540.759,538.758,0.0
52293.0,STARLINK-3771,PAYLOAD,2024-08-04 09:05:39,15.08841214,0.0001554,53.2166,193.229,99.0991,261.0177,2.1128e-05,4.8e-07,0.0,0 STARLINK-3771,1 52293U 22041AJ  24217.37893485  .00000048  00000-0  21128-4 0  9993,2 52293  53.2166 193.2290 0001554  99.0991 261.0177 15.08841214127811,6917.877,95.437,540.817,538.667,0.0
52293.0,STARLINK-3771,PAYLOAD,2024-08-04 15:27:12,15.08841761,0.0001492,53.2165,192.0382,89.4989,270.6174,1.3387e-05,-7.5e-07,0.0,0 STARLINK-3771,1 52293U 22041AJ  24217.64389508 -.00000075  00000-0  13387-4 0  9998,2 52293  53.2165 192.0382 0001492  89.4989 270.6174 15.08841761126639,6917.875,95.437,540.772,538.708,0.0
52293.0,STARLINK-3771,PAYLOAD,2024-08-05 05:45:40,15.08849385,0.0001461,53.2159,189.3606,85.8436,274.2723,0.00015924,2.248e-05,0.0,0 STARLINK-3771,1 52293U 22041AJ  24218.24004790  .00002248  00000-0  15924-3 0  9993,2 52293  53.2159 189.3606 0001461  85.8436 274.2723 15.08849385127948,6917.852,95.437,540.727,538.706,0.0
52293.0,STARLINK-3771,PAYLOAD,2024-08-05 15:18:00,15.08831633,0.0001746,53.217,187.5798,80.6639,279.455,3.0505e-05,1.97e-06,0.0,0 STARLINK-3771,1 52293U 22041AJ  24218.63750450  .00000197  00000-0  30505-4 0  9991,2 52293  53.2170 187.5798 0001746  80.6639 279.4550 15.08831633128007,6917.906,95.438,540.979,538.563,0.0
52293.0,STARLINK-3771,PAYLOAD,2024-08-06 04:01:06,15.08821871,0.0001355,53.2148,185.197,80.5224,279.5921,-4.1864e-05,-9.54e-06,0.0,0 STARLINK-3771,1 52293U 22041AJ  24219.16743754 -.00000954  00000-0 -41864-4 0  9992,2 52293  53.2148 185.1970 0001355  80.5224 279.5921 15.08821871128087,6917.936,95.439,540.738,538.863,0.0
52293.0,STARLINK-3771,PAYLOAD,2024-08-06 07:11:52,15.0882482,0.0001482,53.2149,184.6019,79.567,280.5489,-5.6456e-05,-1.186e-05,0.0,0 STARLINK-3771,1 52293U 22041AJ  24219.29991161 -.00001186  00000-0 -56456-4 0  9994,2 52293  53.2149 184.6019 0001482  79.5670 280.5489 15.08824820128101,6917.927,95.439,540.817,538.767,0.0
52293.0,STARLINK-3771,PAYLOAD,2024-08-07 02:16:29,15.08848075,0.0001455,53.2149,181.0343,77.7445,282.371,0.00044107,6.74e-05,0.0,0 STARLINK-3771,1 52293U 22041AJ  24220.09478642  .00006740  00000-0  44107-3 0  9996,2 52293  53.2149 181.0343 0001455  77.7445 282.3710 15.08848075128220,6917.856,95.437,540.727,538.714,0.0
52293.0,STARLINK-3771,PAYLOAD,2024-08-08 06:53:24,15.08879937,0.0001403,53.2158,175.682,93.3607,266.7546,0.0011328,0.00017806,0.0,0 STARLINK-3771,1 52293U 22041AJ  24221.28709411  .00017806  00000-0  11328-2 0  9992,2 52293  53.2158 175.6820 0001403  93.3607 266.7546 15.08879937127184,6917.758,95.435,540.594,538.653,0.0
